*******************************************************************************
Ephemeris / WWW_USER Thu May 23 08:25:08 2024 Pasadena, USA      / Horizons    
*******************************************************************************
Target body name: (2018 RA1)                      {source: JPL#6}
Center body name: Earth (399)                     {source: DE441}
Center-site name: Gemini South Obs., Cerro Pachon
*******************************************************************************
Start time      : A.D. 2018-Oct-02 22:53:00.0000 UT      
Stop  time      : A.D. 2018-Oct-03 10:10:00.0000 UT      
Step-size       : 1 minutes
*******************************************************************************
Target pole/equ : undefined
Target radii    : undefined                                                    
Center geodetic : 289.2634, -30.2406227, 2.71233  {E-lon(deg),Lat(deg),Alt(km)}
Center cylindric: 289.2634,5517.21435,-3194.81213 {E-lon(deg),Dxy(km),Dz(km)}
Center pole/equ : ITRF93                          {East-longitude positive}
Center radii    : 6378.137, 6378.137, 6356.752 km {Equator_a, b, pole_c}       
Target primary  : Sun
Vis. interferer : MOON (R_eq= 1737.400) km        {source: DE441}
Rel. light bend : Sun                             {source: DE441}
Rel. lght bnd GM: 1.3271E+11 km^3/s^2                                          
Small-body perts: Yes                             {source: SB441-N16}
Atmos refraction: NO (AIRLESS)
RA format       : HMS
Time format     : CAL 
Calendar mode   : Mixed Julian/Gregorian
RTS-only print  : NO       
EOP file        : eop.240522.p240815                                           
EOP coverage    : DATA-BASED 1962-JAN-20 TO 2024-MAY-22. PREDICTS-> 2024-AUG-14
Units conversion: 1 au= 149597870.700 km, c= 299792.458 km/s, 1 day= 86400.0 s 
Table cut-offs 1: Elevation (-90.0deg=NO ),Airmass (>38.000=NO), Daylight (YES)
Table cut-offs 2: Solar elongation (  0.0,180.0=NO ),Local Hour Angle( 0.0=NO )
Table cut-offs 3: RA/DEC angular rate (     0.0=NO )                           
*******************************************************************************
Initial IAU76/J2000 heliocentric ecliptic osculating elements (au, days, deg.):
  EPOCH=  2458369.5 ! 2018-Sep-08.00 (TDB)         Residual RMS= .21275        
   EC= .3232115344739424   QR= .7703453101153647   TP= 2458436.6763547547      
   OM= 166.2054176892707   W=  269.7217787981747   IN= 8.763099478405824       
  Equivalent ICRF heliocentric cartesian coordinates (au, au/d):
   X= 9.899686155013647E-01  Y=-2.468208982240139E-01  Z=-1.030323866474361E-01
  VX=-9.411283005844916E-04 VY= 1.717513364149167E-02 VZ= 4.613440841260365E-03
Asteroid physical parameters (km, seconds, rotational period in hours):        
   GM= n.a.                RAD= n.a.               ROTPER= n.a.                
   H= 26.4                 G= .150                 B-V= n.a.                   
                           ALBEDO= n.a.            STYP= n.a.                  
*******************************************************************************
 Date__(UT)__HR:MN     R.A._________(ICRF)_________DEC
******************************************************
$$SOE
 2018-Oct-03 05:02     10 42 57.685710 -20 33 08.53009
 2018-Oct-03 05:03     10 42 57.720247 -20 33 08.01256
 2018-Oct-03 05:04     10 42 57.754740 -20 33 07.49535
 2018-Oct-03 05:05     10 42 57.789187 -20 33 06.97847
 2018-Oct-03 05:06     10 42 57.823589 -20 33 06.46190
 2018-Oct-03 05:07     10 42 57.857946 -20 33 05.94566
 2018-Oct-03 05:08     10 42 57.892256 -20 33 05.42974
 2018-Oct-03 05:09     10 42 57.926520 -20 33 04.91414
 2018-Oct-03 05:10     10 42 57.960738 -20 33 04.39886
 2018-Oct-03 05:11     10 42 57.994909 -20 33 03.88389
 2018-Oct-03 05:12     10 42 58.029032 -20 33 03.36925
 2018-Oct-03 05:13     10 42 58.063109 -20 33 02.85491
 2018-Oct-03 05:14     10 42 58.097138 -20 33 02.34089
 2018-Oct-03 05:15     10 42 58.131119 -20 33 01.82718
 2018-Oct-03 05:16     10 42 58.165052 -20 33 01.31379
 2018-Oct-03 05:17     10 42 58.198937 -20 33 00.80070
 2018-Oct-03 05:18     10 42 58.232773 -20 33 00.28793
 2018-Oct-03 05:19     10 42 58.266560 -20 32 59.77546
 2018-Oct-03 05:20     10 42 58.300298 -20 32 59.26330
 2018-Oct-03 05:21     10 42 58.333987 -20 32 58.75145
 2018-Oct-03 05:22     10 42 58.367626 -20 32 58.23990
 2018-Oct-03 05:23     10 42 58.401216 -20 32 57.72866
 2018-Oct-03 05:24     10 42 58.434755 -20 32 57.21772
 2018-Oct-03 05:25     10 42 58.468244 -20 32 56.70708
 2018-Oct-03 05:26     10 42 58.501682 -20 32 56.19674
 2018-Oct-03 05:27     10 42 58.535069 -20 32 55.68671
 2018-Oct-03 05:28     10 42 58.568405 -20 32 55.17697
 2018-Oct-03 05:29     10 42 58.601690 -20 32 54.66752
 2018-Oct-03 05:30     10 42 58.634923 -20 32 54.15838
 2018-Oct-03 05:31     10 42 58.668104 -20 32 53.64952
 2018-Oct-03 05:32     10 42 58.701234 -20 32 53.14097
 2018-Oct-03 05:33     10 42 58.734311 -20 32 52.63270
 2018-Oct-03 05:34     10 42 58.767335 -20 32 52.12473
 2018-Oct-03 05:35     10 42 58.800306 -20 32 51.61704
 2018-Oct-03 05:36     10 42 58.833224 -20 32 51.10965
 2018-Oct-03 05:37     10 42 58.866089 -20 32 50.60254
 2018-Oct-03 05:38     10 42 58.898901 -20 32 50.09572
 2018-Oct-03 05:39     10 42 58.931659 -20 32 49.58918
 2018-Oct-03 05:40     10 42 58.964362 -20 32 49.08293
 2018-Oct-03 05:41     10 42 58.997012 -20 32 48.57696
 2018-Oct-03 05:42     10 42 59.029606 -20 32 48.07127
 2018-Oct-03 05:43     10 42 59.062147 -20 32 47.56586
 2018-Oct-03 05:44     10 42 59.094632 -20 32 47.06074
 2018-Oct-03 05:45     10 42 59.127062 -20 32 46.55589
 2018-Oct-03 05:46     10 42 59.159436 -20 32 46.05131
 2018-Oct-03 05:47     10 42 59.191755 -20 32 45.54701
 2018-Oct-03 05:48     10 42 59.224018 -20 32 45.04299
 2018-Oct-03 05:49     10 42 59.256225 -20 32 44.53924
 2018-Oct-03 05:50     10 42 59.288376 -20 32 44.03576
 2018-Oct-03 05:51     10 42 59.320470 -20 32 43.53255
 2018-Oct-03 05:52     10 42 59.352507 -20 32 43.02961
 2018-Oct-03 05:53     10 42 59.384487 -20 32 42.52694
 2018-Oct-03 05:54     10 42 59.416410 -20 32 42.02453
 2018-Oct-03 05:55     10 42 59.448276 -20 32 41.52239
 2018-Oct-03 05:56     10 42 59.480084 -20 32 41.02051
 2018-Oct-03 05:57     10 42 59.511834 -20 32 40.51890
 2018-Oct-03 05:58     10 42 59.543526 -20 32 40.01755
 2018-Oct-03 05:59     10 42 59.575160 -20 32 39.51645
 2018-Oct-03 06:00     10 42 59.606735 -20 32 39.01562
 2018-Oct-03 06:01     10 42 59.638251 -20 32 38.51504
 2018-Oct-03 06:02     10 42 59.669709 -20 32 38.01472
 2018-Oct-03 06:03     10 42 59.701107 -20 32 37.51465
 2018-Oct-03 06:04     10 42 59.732446 -20 32 37.01484
 2018-Oct-03 06:05     10 42 59.763725 -20 32 36.51528
 2018-Oct-03 06:06     10 42 59.794945 -20 32 36.01597
 2018-Oct-03 06:07     10 42 59.826105 -20 32 35.51691
 2018-Oct-03 06:08     10 42 59.857204 -20 32 35.01810
 2018-Oct-03 06:09     10 42 59.888243 -20 32 34.51953
 2018-Oct-03 06:10  m  10 42 59.919222 -20 32 34.02121
 2018-Oct-03 06:11  m  10 42 59.950140 -20 32 33.52313
 2018-Oct-03 06:12  m  10 42 59.980996 -20 32 33.02530
 2018-Oct-03 06:13  m  10 43 00.011792 -20 32 32.52771
 2018-Oct-03 06:14  m  10 43 00.042526 -20 32 32.03035
 2018-Oct-03 06:15  m  10 43 00.073199 -20 32 31.53324
 2018-Oct-03 06:16  m  10 43 00.103809 -20 32 31.03636
 2018-Oct-03 06:17  m  10 43 00.134358 -20 32 30.53972
 2018-Oct-03 06:18  m  10 43 00.164845 -20 32 30.04331
 2018-Oct-03 06:19  m  10 43 00.195269 -20 32 29.54713
 2018-Oct-03 06:20  m  10 43 00.225631 -20 32 29.05119
 2018-Oct-03 06:21  m  10 43 00.255930 -20 32 28.55548
 2018-Oct-03 06:22  m  10 43 00.286166 -20 32 28.05999
 2018-Oct-03 06:23  m  10 43 00.316339 -20 32 27.56473
 2018-Oct-03 06:24  m  10 43 00.346449 -20 32 27.06970
 2018-Oct-03 06:25  m  10 43 00.376495 -20 32 26.57489
 2018-Oct-03 06:26  m  10 43 00.406478 -20 32 26.08031
 2018-Oct-03 06:27  m  10 43 00.436397 -20 32 25.58594
 2018-Oct-03 06:28  m  10 43 00.466252 -20 32 25.09180
 2018-Oct-03 06:29  m  10 43 00.496042 -20 32 24.59788
 2018-Oct-03 06:30  m  10 43 00.525769 -20 32 24.10417
 2018-Oct-03 06:31  m  10 43 00.555430 -20 32 23.61068
 2018-Oct-03 06:32  m  10 43 00.585027 -20 32 23.11740
 2018-Oct-03 06:33  m  10 43 00.614560 -20 32 22.62434
 2018-Oct-03 06:34  m  10 43 00.644027 -20 32 22.13149
 2018-Oct-03 06:35  m  10 43 00.673428 -20 32 21.63884
 2018-Oct-03 06:36  m  10 43 00.702765 -20 32 21.14641
 2018-Oct-03 06:37  m  10 43 00.732036 -20 32 20.65418
 2018-Oct-03 06:38  m  10 43 00.761241 -20 32 20.16216
 2018-Oct-03 06:39  m  10 43 00.790380 -20 32 19.67034
 2018-Oct-03 06:40  m  10 43 00.819453 -20 32 19.17873
 2018-Oct-03 06:41  m  10 43 00.848460 -20 32 18.68731
 2018-Oct-03 06:42  m  10 43 00.877401 -20 32 18.19610
 2018-Oct-03 06:43  m  10 43 00.906275 -20 32 17.70509
 2018-Oct-03 06:44  m  10 43 00.935082 -20 32 17.21427
 2018-Oct-03 06:45  m  10 43 00.963822 -20 32 16.72364
 2018-Oct-03 06:46  m  10 43 00.992496 -20 32 16.23321
 2018-Oct-03 06:47  m  10 43 01.021102 -20 32 15.74298
 2018-Oct-03 06:48  m  10 43 01.049641 -20 32 15.25293
 2018-Oct-03 06:49  m  10 43 01.078112 -20 32 14.76307
 2018-Oct-03 06:50  m  10 43 01.106516 -20 32 14.27340
 2018-Oct-03 06:51  m  10 43 01.134852 -20 32 13.78392
 2018-Oct-03 06:52  m  10 43 01.163120 -20 32 13.29462
 2018-Oct-03 06:53  m  10 43 01.191320 -20 32 12.80550
 2018-Oct-03 06:54  m  10 43 01.219452 -20 32 12.31657
 2018-Oct-03 06:55  m  10 43 01.247515 -20 32 11.82781
 2018-Oct-03 06:56  m  10 43 01.275510 -20 32 11.33924
 2018-Oct-03 06:57  m  10 43 01.303437 -20 32 10.85084
 2018-Oct-03 06:58  m  10 43 01.331294 -20 32 10.36261
 2018-Oct-03 06:59  m  10 43 01.359083 -20 32 09.87457
 2018-Oct-03 07:00  m  10 43 01.386802 -20 32 09.38669
 2018-Oct-03 07:01  m  10 43 01.414452 -20 32 08.89898
 2018-Oct-03 07:02  m  10 43 01.442033 -20 32 08.41145
 2018-Oct-03 07:03  m  10 43 01.469545 -20 32 07.92408
 2018-Oct-03 07:04  m  10 43 01.496987 -20 32 07.43688
